{
  "type": "FeatureCollection",
  "features": [
    {
      "type": "Feature",
      "properties": {
        "norad_id": 54259,
        "name": "EUTELSAT 10B",
        "group": "eutelsat",
        "lat": 0.016787079423574984,
        "lon": -121.38882295047874,
        "alt_km": 35786.4939738218,
        "timestamp": "2025-12-12T09:49:08.399520+00:00",
        "meta_object_name": "EUTELSAT 10B",
        "meta_object_id": "2022-157A",
        "meta_epoch": "2025-12-12T03:15:15.814080",
        "meta_mean_motion": 1.00269595,
        "meta_eccentricity": 6.67e-05,
        "meta_inclination": 0.0602,
        "meta_ra_of_asc_node": 99.4652,
        "meta_arg_of_pericenter": 52.9075,
        "meta_mean_anomaly": 347.4998,
        "meta_ephemeris_type": 0,
        "meta_classification_type": "U",
        "meta_norad_cat_id": 54259,
        "meta_element_set_no": 999,
        "meta_rev_at_epoch": 1115,
        "meta_bstar": 0,
        "meta_mean_motion_dot": 7.7e-07,
        "meta_mean_motion_ddot": 0,
        "tle_line1": "1 54259U 22157A   25346.13559970  .00000077  00000+0  00000+0 0  9993",
        "tle_line2": "2 54259   0.0602  99.4652 0000667  52.9075 347.4998  1.00269595 11156"
      },
      "geometry": {
        "type": "Point",
        "coordinates": [
          -121.38882295047874,
          0.016787079423574984
        ]
      }
    },
    {
      "type": "Feature",
      "properties": {
        "norad_id": 59346,
        "name": "EUTELSAT 36D",
        "group": "eutelsat",
        "lat": -0.03620086795506103,
        "lon": -95.530945723626,
        "alt_km": 35786.6300726992,
        "timestamp": "2025-12-12T09:49:08.399534+00:00",
        "meta_object_name": "EUTELSAT 36D",
        "meta_object_id": "2024-059A",
        "meta_epoch": "2025-12-12T01:40:02.434368",
        "meta_mean_motion": 1.00269434,
        "meta_eccentricity": 4.34e-05,
        "meta_inclination": 0.0187,
        "meta_ra_of_asc_node": 349.451,
        "meta_arg_of_pericenter": 2.6949,
        "meta_mean_anomaly": 149.7269,
        "meta_ephemeris_type": 0,
        "meta_classification_type": "U",
        "meta_norad_cat_id": 59346,
        "meta_element_set_no": 999,
        "meta_rev_at_epoch": 627,
        "meta_bstar": 0,
        "meta_mean_motion_dot": 0,
        "meta_mean_motion_ddot": 0,
        "tle_line1": "1 59346U 24059A   25346.06947262  .00000000  00000+0  00000+0 0  9991",
        "tle_line2": "2 59346   0.0187 349.4510 0000434   2.6949 149.7269  1.00269434  6274"
      },
      "geometry": {
        "type": "Point",
        "coordinates": [
          -95.530945723626,
          -0.03620086795506103
        ]
      }
    }
  ]
}